{
  "type": "FeatureCollection",
  "features": [
    {
      "type": "Feature",
      "properties": {
        "norad_id": 29887,
        "name": "FENGYUN 1C DEB",
        "group": "fengyun-1c-debris",
        "lat": 80.33651097367698,
        "lon": 0.0795724351938266,
        "alt_km": 713.6419020495032,
        "timestamp": "2025-12-08T19:31:49.081847+00:00",
        "meta_object_name": "FENGYUN 1C DEB",
        "meta_object_id": "1999-025GH",
        "meta_epoch": "2025-12-08T04:12:26.663904",
        "meta_mean_motion": 14.33677375,
        "meta_eccentricity": 0.02873394,
        "meta_inclination": 98.7182,
        "meta_ra_of_asc_node": 63.7453,
        "meta_arg_of_pericenter": 12.6205,
        "meta_mean_anomaly": 16.7167,
        "meta_ephemeris_type": 0,
        "meta_classification_type": "U",
        "meta_norad_cat_id": 29887,
        "meta_element_set_no": 999,
        "meta_rev_at_epoch": 97909,
        "meta_bstar": 0.00066650941,
        "meta_mean_motion_dot": 2.884e-05,
        "meta_mean_motion_ddot": 0,
        "tle_line1": "1 29887U 99025GH  25342.17530861  .00002884  00000+0  66651-3 0  9994",
        "tle_line2": "2 29887  98.7182  63.7453 0287339  12.6205  16.7167 14.33677375979095"
      },
      "geometry": {
        "type": "Point",
        "coordinates": [
          0.0795724351938266,
          80.33651097367698
        ]
      }
    },
    {
      "type": "Feature",
      "properties": {
        "norad_id": 29888,
        "name": "FENGYUN 1C DEB",
        "group": "fengyun-1c-debris",
        "lat": -5.2945881496788,
        "lon": 176.22618945517826,
        "alt_km": 679.1591424296803,
        "timestamp": "2025-12-08T19:31:49.081856+00:00",
        "meta_object_name": "FENGYUN 1C DEB",
        "meta_object_id": "1999-025GJ",
        "meta_epoch": "2025-12-08T06:01:28.631712",
        "meta_mean_motion": 14.19843134,
        "meta_eccentricity": 0.02751498,
        "meta_inclination": 99.1919,
        "meta_ra_of_asc_node": 174.7815,
        "meta_arg_of_pericenter": 38.1032,
        "meta_mean_anomaly": 323.9252,
        "meta_ephemeris_type": 0,
        "meta_classification_type": "U",
        "meta_norad_cat_id": 29888,
        "meta_element_set_no": 999,
        "meta_rev_at_epoch": 97440,
        "meta_bstar": 0.00058977304,
        "meta_mean_motion_dot": 1.776e-05,
        "meta_mean_motion_ddot": 0,
        "tle_line1": "1 29888U 99025GJ  25342.25102583  .00001776  00000+0  58977-3 0  9991",
        "tle_line2": "2 29888  99.1919 174.7815 0275149  38.1032 323.9252 14.19843134974401"
      },
      "geometry": {
        "type": "Point",
        "coordinates": [
          176.22618945517826,
          -5.2945881496788
        ]
      }
    },
    {
      "type": "Feature",
      "properties": {
        "norad_id": 29889,
        "name": "FENGYUN 1C DEB",
        "group": "fengyun-1c-debris",
        "lat": 9.3721426985837,
        "lon": -78.44683462481525,
        "alt_km": 904.266816511944,
        "timestamp": "2025-12-08T19:31:49.081865+00:00",
        "meta_object_name": "FENGYUN 1C DEB",
        "meta_object_id": "1999-025GK",
        "meta_epoch": "2025-12-08T07:05:50.724672",
        "meta_mean_motion": 14.13504161,
        "meta_eccentricity": 0.01545846,
        "meta_inclination": 99.4766,
        "meta_ra_of_asc_node": 99.4248,
        "meta_arg_of_pericenter": 51.3988,
        "meta_mean_anomaly": 2.8014,
        "meta_ephemeris_type": 0,
        "meta_classification_type": "U",
        "meta_norad_cat_id": 29889,
        "meta_element_set_no": 999,
        "meta_rev_at_epoch": 97256,
        "meta_bstar": 0.00049596093,
        "meta_mean_motion_dot": 9.98e-06,
        "meta_mean_motion_ddot": 0,
        "tle_line1": "1 29889U 99025GK  25342.29572598  .00000998  00000+0  49596-3 0  9995",
        "tle_line2": "2 29889  99.4766  99.4248 0154584  51.3988   2.8014 14.13504161972566"
      },
      "geometry": {
        "type": "Point",
        "coordinates": [
          -78.44683462481525,
          9.3721426985837
        ]
      }
    },
    {
      "type": "Feature",
      "properties": {
        "norad_id": 29890,
        "name": "FENGYUN 1C DEB",
        "group": "fengyun-1c-debris",
        "lat": -74.73123252539733,
        "lon": -113.63952921981287,
        "alt_km": 833.0844791106156,
        "timestamp": "2025-12-08T19:31:49.081875+00:00",
        "meta_object_name": "FENGYUN 1C DEB",
        "meta_object_id": "1999-025GL",
        "meta_epoch": "2025-12-08T06:30:36.645408",
        "meta_mean_motion": 14.23011596,
        "meta_eccentricity": 0.00148836,
        "meta_inclination": 99.4678,
        "meta_ra_of_asc_node": 103.4604,
        "meta_arg_of_pericenter": 85.8498,
        "meta_mean_anomaly": 274.4378,
        "meta_ephemeris_type": 0,
        "meta_classification_type": "U",
        "meta_norad_cat_id": 29890,
        "meta_element_set_no": 999,
        "meta_rev_at_epoch": 97387,
        "meta_bstar": 0.0014335329,
        "meta_mean_motion_dot": 3.184e-05,
        "meta_mean_motion_ddot": 0,
        "tle_line1": "1 29890U 99025GL  25342.27125747  .00003184  00000+0  14335-2 0  9997",
        "tle_line2": "2 29890  99.4678 103.4604 0014883  85.8498 274.4378 14.23011596973878"
      },
      "geometry": {
        "type": "Point",
        "coordinates": [
          -113.63952921981287,
          -74.73123252539733
        ]
      }
    },
    {
      "type": "Feature",
      "properties": {
        "norad_id": 29891,
        "name": "FENGYUN 1C DEB",
        "group": "fengyun-1c-debris",
        "lat": 31.75174039192787,
        "lon": 170.574658637382,
        "alt_km": 916.4967752518905,
        "timestamp": "2025-12-08T19:31:49.081884+00:00",
        "meta_object_name": "FENGYUN 1C DEB",
        "meta_object_id": "1999-025GM",
        "meta_epoch": "2025-12-08T00:02:43.255392",
        "meta_mean_motion": 13.99988751,
        "meta_eccentricity": 0.00614381,
        "meta_inclination": 98.726,
        "meta_ra_of_asc_node": 344.3463,
        "meta_arg_of_pericenter": 273.6249,
        "meta_mean_anomaly": 105.1537,
        "meta_ephemeris_type": 0,
        "meta_classification_type": "U",
        "meta_norad_cat_id": 29891,
        "meta_element_set_no": 999,
        "meta_rev_at_epoch": 96422,
        "meta_bstar": 0.00055609284,
        "meta_mean_motion_dot": 7.89e-06,
        "meta_mean_motion_ddot": 0,
        "tle_line1": "1 29891U 99025GM  25342.00188953  .00000789  00000+0  55609-3 0  9995",
        "tle_line2": "2 29891  98.7260 344.3463 0061438 273.6249 105.1537 13.99988751964220"
      },
      "geometry": {
        "type": "Point",
        "coordinates": [
          170.574658637382,
          31.75174039192787
        ]
      }
    },
    {
      "type": "Feature",
      "properties": {
        "norad_id": 29892,
        "name": "FENGYUN 1C DEB",
        "group": "fengyun-1c-debris",
        "lat": 71.81951023505376,
        "lon": -20.36659491147083,
        "alt_km": 903.4947525960597,
        "timestamp": "2025-12-08T19:31:49.081893+00:00",
        "meta_object_name": "FENGYUN 1C DEB",
        "meta_object_id": "1999-025GN",
        "meta_epoch": "2025-12-07T23:28:49.898784",
        "meta_mean_motion": 14.32038299,
        "meta_eccentricity": 0.01910646,
        "meta_inclination": 99.182,
        "meta_ra_of_asc_node": 129.2429,
        "meta_arg_of_pericenter": 311.1166,
        "meta_mean_anomaly": 169.3282,
        "meta_ephemeris_type": 0,
        "meta_classification_type": "U",
        "meta_norad_cat_id": 29892,
        "meta_element_set_no": 999,
        "meta_rev_at_epoch": 96581,
        "meta_bstar": 0.0038478741,
        "meta_mean_motion_dot": 0.00012607,
        "meta_mean_motion_ddot": 0,
        "tle_line1": "1 29892U 99025GN  25341.97835531  .00012607  00000+0  38479-2 0  9999",
        "tle_line2": "2 29892  99.1820 129.2429 0191064 311.1166 169.3282 14.32038299965811"
      },
      "geometry": {
        "type": "Point",
        "coordinates": [
          -20.36659491147083,
          71.81951023505376
        ]
      }
    },
    {
      "type": "Feature",
      "properties": {
        "norad_id": 29893,
        "name": "FENGYUN 1C DEB",
        "group": "fengyun-1c-debris",
        "lat": -71.7247638195408,
        "lon": -127.85756550337,
        "alt_km": 970.3200584175438,
        "timestamp": "2025-12-08T19:31:49.081902+00:00",
        "meta_object_name": "FENGYUN 1C DEB",
        "meta_object_id": "1999-025GP",
        "meta_epoch": "2025-12-08T06:24:58.144896",
        "meta_mean_motion": 13.79457967,
        "meta_eccentricity": 0.01735169,
        "meta_inclination": 98.5536,
        "meta_ra_of_asc_node": 78.7604,
        "meta_arg_of_pericenter": 165.4809,
        "meta_mean_anomaly": 254.203,
        "meta_ephemeris_type": 0,
        "meta_classification_type": "U",
        "meta_norad_cat_id": 29893,
        "meta_element_set_no": 999,
        "meta_rev_at_epoch": 95078,
        "meta_bstar": 0.00042675318,
        "meta_mean_motion_dot": 4.54e-06,
        "meta_mean_motion_ddot": 0,
        "tle_line1": "1 29893U 99025GP  25342.26733964  .00000454  00000+0  42675-3 0  9991",
        "tle_line2": "2 29893  98.5536  78.7604 0173516 165.4809 254.2030 13.79457967950780"
      },
      "geometry": {
        "type": "Point",
        "coordinates": [
          -127.85756550337,
          -71.7247638195408
        ]
      }
    }
  ]
}